TANAGER-1               
1 60507U 24149AR  26197.70455763  .00000177  00000+0  57487-5 0  9990
2 60507  97.2316 291.8277 0002237 121.9560 238.1906 15.43932700107597
